{
    "CCSDS_OMM_VERS": "3.0",
    "COMMENT": "GENERATED VIA SPACE-TRACK.ORG API",
    "CREATION_DATE": "2025-11-24T07:36:20",
    "ORIGINATOR": "18 SPCS",
    "OBJECT_NAME": "COSMOS 2559 (GLONASS)",
    "OBJECT_ID": "2022-130A",
    "CENTER_NAME": "EARTH",
    "REF_FRAME": "TEME",
    "TIME_SYSTEM": "UTC",
    "MEAN_ELEMENT_THEORY": "SGP4",
    "EPOCH": "2025-11-23T20:39:58.829184",
    "MEAN_MOTION": "2.13101465",
    "ECCENTRICITY": "0.00122710",
    "INCLINATION": "64.3922",
    "RA_OF_ASC_NODE": "321.8059",
    "ARG_OF_PERICENTER": "192.8621",
    "MEAN_ANOMALY": "167.1204",
    "EPHEMERIS_TYPE": "0",
    "CLASSIFICATION_TYPE": "U",
    "NORAD_CAT_ID": "54031",
    "ELEMENT_SET_NO": "999",
    "REV_AT_EPOCH": "2431",
    "BSTAR": "0.00000000000000",
    "MEAN_MOTION_DOT": "-0.00000031",
    "MEAN_MOTION_DDOT": "0.0000000000000",
    "SEMIMAJOR_AXIS": "25508.067",
    "PERIOD": "675.734",
    "APOAPSIS": "19161.233",
    "PERIAPSIS": "19098.631",
    "OBJECT_TYPE": "PAYLOAD",
    "RCS_SIZE": "LARGE",
    "COUNTRY_CODE": "CIS",
    "LAUNCH_DATE": "2022-10-10",
    "SITE": "PKMTR",
    "DECAY_DATE": null,
    "FILE": "4897180",
    "GP_ID": "303371932",
    "TLE_LINE0": "0 COSMOS 2559 (GLONASS)",
    "TLE_LINE1": "1 54031U 22130A   25327.86109756 -.00000031  00000-0  00000+0 0  9996",
    "TLE_LINE2": "2 54031  64.3922 321.8059 0012271 192.8621 167.1204  2.13101465 24315"
}